[{"OBJECT_NAME":"STARLINK-35477","OBJECT_ID":"2025-253V","EPOCH":"2026-03-04T12:16:02.349984","MEAN_MOTION":15.27620736,"ECCENTRICITY":0.00010768,"INCLINATION":42.9951,"RA_OF_ASC_NODE":241.6511,"ARG_OF_PERICENTER":174.3559,"MEAN_ANOMALY":185.7305,"EPHEMERIS_TYPE":0,"CLASSIFICATION_TYPE":"U","NORAD_CAT_ID":66338,"ELEMENT_SET_NO":999,"REV_AT_EPOCH":1945,"BSTAR":0.0016082441,"MEAN_MOTION_DOT":0.00044315,"MEAN_MOTION_DDOT":0},{"OBJECT_NAME":"STARLINK-35443","OBJECT_ID":"2025-253W","EPOCH":"2026-03-04T18:41:54.794688","MEAN_MOTION":15.27601641,"ECCENTRICITY":6.44e-5,"INCLINATION":42.9928,"RA_OF_ASC_NODE":240.2158,"ARG_OF_PERICENTER":257.7255,"MEAN_ANOMALY":102.3525,"EPHEMERIS_TYPE":0,"CLASSIFICATION_TYPE":"U","NORAD_CAT_ID":66339,"ELEMENT_SET_NO":999,"REV_AT_EPOCH":1949,"BSTAR":0.0013608,"MEAN_MOTION_DOT":0.00037398,"MEAN_MOTION_DDOT":0},{"OBJECT_NAME":"STARLINK-35218","OBJECT_ID":"2025-253X","EPOCH":"2026-03-04T12:58:35.611680","MEAN_MOTION":15.27627432,"ECCENTRICITY":0.0001452,"INCLINATION":43.0021,"RA_OF_ASC_NODE":241.8704,"ARG_OF_PERICENTER":186.9852,"MEAN_ANOMALY":173.098,"EPHEMERIS_TYPE":0,"CLASSIFICATION_TYPE":"U","NORAD_CAT_ID":66340,"ELEMENT_SET_NO":999,"REV_AT_EPOCH":1945,"BSTAR":0.0018855,"MEAN_MOTION_DOT":0.00052065,"MEAN_MOTION_DDOT":0},{"OBJECT_NAME":"STARLINK-35522","OBJECT_ID":"2025-253Y","EPOCH":"2026-03-04T19:00:25.381152","MEAN_MOTION":15.27623939,"ECCENTRICITY":7.57e-5,"INCLINATION":42.9982,"RA_OF_ASC_NODE":240.3196,"ARG_OF_PERICENTER":257.7862,"MEAN_ANOMALY":102.2905,"EPHEMERIS_TYPE":0,"CLASSIFICATION_TYPE":"U","NORAD_CAT_ID":66341,"ELEMENT_SET_NO":999,"REV_AT_EPOCH":1949,"BSTAR":0.0012583,"MEAN_MOTION_DOT":0.00034572,"MEAN_MOTION_DDOT":0},{"OBJECT_NAME":"STARLINK-35535","OBJECT_ID":"2025-253Z","EPOCH":"2026-03-04T18:53:00.550752","MEAN_MOTION":15.2760919,"ECCENTRICITY":5.56e-5,"INCLINATION":42.9904,"RA_OF_ASC_NODE":240.2738,"ARG_OF_PERICENTER":281.803,"MEAN_ANOMALY":78.2759,"EPHEMERIS_TYPE":0,"CLASSIFICATION_TYPE":"U","NORAD_CAT_ID":66342,"ELEMENT_SET_NO":999,"REV_AT_EPOCH":1949,"BSTAR":0.0012329,"MEAN_MOTION_DOT":0.0003385,"MEAN_MOTION_DDOT":0},{"OBJECT_NAME":"STARLINK-35467","OBJECT_ID":"2025-253AA","EPOCH":"2026-03-04T12:53:04.721280","MEAN_MOTION":15.27593662,"ECCENTRICITY":0.0001648,"INCLINATION":43.001,"RA_OF_ASC_NODE":241.8452,"ARG_OF_PERICENTER":265.6958,"MEAN_ANOMALY":94.3705,"EPHEMERIS_TYPE":0,"CLASSIFICATION_TYPE":"U","NORAD_CAT_ID":66343,"ELEMENT_SET_NO":999,"REV_AT_EPOCH":1945,"BSTAR":0.0013471,"MEAN_MOTION_DOT":0.00037009,"MEAN_MOTION_DDOT":0},{"OBJECT_NAME":"STARLINK-35511","OBJECT_ID":"2025-253AB","EPOCH":"2026-03-04T13:20:35.325888","MEAN_MOTION":15.27616654,"ECCENTRICITY":0.0001887,"INCLINATION":42.9971,"RA_OF_ASC_NODE":241.1166,"ARG_OF_PERICENTER":268.9286,"MEAN_ANOMALY":91.135,"EPHEMERIS_TYPE":0,"CLASSIFICATION_TYPE":"U","NORAD_CAT_ID":66344,"ELEMENT_SET_NO":999,"REV_AT_EPOCH":1946,"BSTAR":0.0014118,"MEAN_MOTION_DOT":0.00038837,"MEAN_MOTION_DDOT":0},{"OBJECT_NAME":"STARLINK-35440","OBJECT_ID":"2025-253AC","EPOCH":"2026-03-04T12:38:14.509248","MEAN_MOTION":15.27607949,"ECCENTRICITY":0.00013163,"INCLINATION":42.9932,"RA_OF_ASC_NODE":241.7564,"ARG_OF_PERICENTER":175.9598,"MEAN_ANOMALY":184.1265,"EPHEMERIS_TYPE":0,"CLASSIFICATION_TYPE":"U","NORAD_CAT_ID":66345,"ELEMENT_SET_NO":999,"REV_AT_EPOCH":1945,"BSTAR":0.0016840369,"MEAN_MOTION_DOT":0.00046411,"MEAN_MOTION_DDOT":0},{"OBJECT_NAME":"STARLINK-35482","OBJECT_ID":"2025-253AD","EPOCH":"2026-03-04T19:57:34.009632","MEAN_MOTION":15.27589005,"ECCENTRICITY":0.0001514,"INCLINATION":42.9986,"RA_OF_ASC_NODE":239.7524,"ARG_OF_PERICENTER":263.1158,"MEAN_ANOMALY":96.9521,"EPHEMERIS_TYPE":0,"CLASSIFICATION_TYPE":"U","NORAD_CAT_ID":66346,"ELEMENT_SET_NO":999,"REV_AT_EPOCH":1950,"BSTAR":0.0010496,"MEAN_MOTION_DOT":0.00028743,"MEAN_MOTION_DDOT":0},{"OBJECT_NAME":"STARLINK-35438","OBJECT_ID":"2025-253AE","EPOCH":"2026-03-04T19:44:36.406176","MEAN_MOTION":15.27602174,"ECCENTRICITY":0.0002523,"INCLINATION":43.0024,"RA_OF_ASC_NODE":239.6812,"ARG_OF_PERICENTER":255.0968,"MEAN_ANOMALY":104.9604,"EPHEMERIS_TYPE":0,"CLASSIFICATION_TYPE":"U","NORAD_CAT_ID":66347,"ELEMENT_SET_NO":999,"REV_AT_EPOCH":1950,"BSTAR":0.0011802,"MEAN_MOTION_DOT":0.00032379,"MEAN_MOTION_DDOT":0},{"OBJECT_NAME":"STARLINK-35849","OBJECT_ID":"2025-254A","EPOCH":"2026-03-04T19:15:51.088896","MEAN_MOTION":15.30184701,"ECCENTRICITY":2.25e-5,"INCLINATION":53.1583,"RA_OF_ASC_NODE":255.4263,"ARG_OF_PERICENTER":335.5136,"MEAN_ANOMALY":24.5854,"EPHEMERIS_TYPE":0,"CLASSIFICATION_TYPE":"U","NORAD_CAT_ID":66348,"ELEMENT_SET_NO":999,"REV_AT_EPOCH":1938,"BSTAR":0.0008791,"MEAN_MOTION_DOT":0.00025755,"MEAN_MOTION_DDOT":0},{"OBJECT_NAME":"STARLINK-35848","OBJECT_ID":"2025-254B","EPOCH":"2026-03-03T22:21:14.788224","MEAN_MOTION":15.30212984,"ECCENTRICITY":0.0001085,"INCLINATION":53.1577,"RA_OF_ASC_NODE":259.2314,"ARG_OF_PERICENTER":86.7962,"MEAN_ANOMALY":273.3163,"EPHEMERIS_TYPE":0,"CLASSIFICATION_TYPE":"U","NORAD_CAT_ID":66349,"ELEMENT_SET_NO":999,"REV_AT_EPOCH":1809,"BSTAR":0.001099,"MEAN_MOTION_DOT":0.00032345,"MEAN_MOTION_DDOT":0},{"OBJECT_NAME":"STARLINK-35829","OBJECT_ID":"2025-254C","EPOCH":"2026-03-04T12:12:31.566816","MEAN_MOTION":15.30228051,"ECCENTRICITY":0.00010698,"INCLINATION":53.1567,"RA_OF_ASC_NODE":256.4333,"ARG_OF_PERICENTER":139.997,"MEAN_ANOMALY":220.111,"EPHEMERIS_TYPE":0,"CLASSIFICATION_TYPE":"U","NORAD_CAT_ID":66350,"ELEMENT_SET_NO":999,"REV_AT_EPOCH":1818,"BSTAR":0.0017018845,"MEAN_MOTION_DOT":0.00050432,"MEAN_MOTION_DDOT":0},{"OBJECT_NAME":"STARLINK-35828","OBJECT_ID":"2025-254D","EPOCH":"2026-03-04T13:37:27.712704","MEAN_MOTION":15.30225667,"ECCENTRICITY":0.0001753,"INCLINATION":53.1543,"RA_OF_ASC_NODE":256.0923,"ARG_OF_PERICENTER":111.9685,"MEAN_ANOMALY":248.1502,"EPHEMERIS_TYPE":0,"CLASSIFICATION_TYPE":"U","NORAD_CAT_ID":66351,"ELEMENT_SET_NO":999,"REV_AT_EPOCH":1819,"BSTAR":0.0011729,"MEAN_MOTION_DOT":0.0003457,"MEAN_MOTION_DDOT":0},{"OBJECT_NAME":"STARLINK-35850","OBJECT_ID":"2025-254E","EPOCH":"2026-03-04T13:19:13.680480","MEAN_MOTION":15.30227347,"ECCENTRICITY":0.0001263,"INCLINATION":53.157,"RA_OF_ASC_NODE":256.0128,"ARG_OF_PERICENTER":44.7807,"MEAN_ANOMALY":315.3296,"EPHEMERIS_TYPE":0,"CLASSIFICATION_TYPE":"U","NORAD_CAT_ID":66352,"ELEMENT_SET_NO":999,"REV_AT_EPOCH":1819,"BSTAR":0.0010973,"MEAN_MOTION_DOT":0.00032307,"MEAN_MOTION_DDOT":0},{"OBJECT_NAME":"STARLINK-35869","OBJECT_ID":"2025-254F","EPOCH":"2026-03-04T13:10:06.369312","MEAN_MOTION":15.30234954,"ECCENTRICITY":0.0001014,"INCLINATION":53.1568,"RA_OF_ASC_NODE":255.9719,"ARG_OF_PERICENTER":107.4292,"MEAN_ANOMALY":252.682,"EPHEMERIS_TYPE":0,"CLASSIFICATION_TYPE":"U","NORAD_CAT_ID":66353,"ELEMENT_SET_NO":999,"REV_AT_EPOCH":1819,"BSTAR":0.0015491,"MEAN_MOTION_DOT":0.00045855,"MEAN_MOTION_DDOT":0},{"OBJECT_NAME":"STARLINK-35895","OBJECT_ID":"2025-254G","EPOCH":"2026-03-04T19:18:53.677152","MEAN_MOTION":15.30227861,"ECCENTRICITY":0.0001269,"INCLINATION":53.1576,"RA_OF_ASC_NODE":255.4482,"ARG_OF_PERICENTER":95.517,"MEAN_ANOMALY":264.5975,"EPHEMERIS_TYPE":0,"CLASSIFICATION_TYPE":"U","NORAD_CAT_ID":66354,"ELEMENT_SET_NO":999,"REV_AT_EPOCH":1822,"BSTAR":0.0013001,"MEAN_MOTION_DOT":0.00038379,"MEAN_MOTION_DDOT":0},{"OBJECT_NAME":"STARLINK-35861","OBJECT_ID":"2025-254H","EPOCH":"2026-03-04T12:53:32.940384","MEAN_MOTION":15.302469,"ECCENTRICITY":0.0001023,"INCLINATION":53.1576,"RA_OF_ASC_NODE":256.6116,"ARG_OF_PERICENTER":103.369,"MEAN_ANOMALY":256.7425,"EPHEMERIS_TYPE":0,"CLASSIFICATION_TYPE":"U","NORAD_CAT_ID":66355,"ELEMENT_SET_NO":999,"REV_AT_EPOCH":1818,"BSTAR":0.0017552,"MEAN_MOTION_DOT":0.00052065,"MEAN_MOTION_DDOT":0},{"OBJECT_NAME":"STARLINK-35851","OBJECT_ID":"2025-254J","EPOCH":"2026-03-03T19:34:24.852288","MEAN_MOTION":15.30204486,"ECCENTRICITY":0.0001012,"INCLINATION":53.1579,"RA_OF_ASC_NODE":259.9305,"ARG_OF_PERICENTER":91.4822,"MEAN_ANOMALY":268.6295,"EPHEMERIS_TYPE":0,"CLASSIFICATION_TYPE":"U","NORAD_CAT_ID":66356,"ELEMENT_SET_NO":999,"REV_AT_EPOCH":1807,"BSTAR":0.0011628,"MEAN_MOTION_DOT":0.00034242,"MEAN_MOTION_DDOT":0},{"OBJECT_NAME":"STARLINK-35817","OBJECT_ID":"2025-254K","EPOCH":"2026-03-04T15:43:41.667168","MEAN_MOTION":15.30018951,"ECCENTRICITY":0.0012036,"INCLINATION":53.1589,"RA_OF_ASC_NODE":255.9245,"ARG_OF_PERICENTER":108.973,"MEAN_ANOMALY":251.2576,"EPHEMERIS_TYPE":0,"CLASSIFICATION_TYPE":"U","NORAD_CAT_ID":66357,"ELEMENT_SET_NO":999,"REV_AT_EPOCH":1820,"BSTAR":-0.003115,"MEAN_MOTION_DOT":-0.0009122,"MEAN_MOTION_DDOT":0},{"OBJECT_NAME":"STARLINK-35807","OBJECT_ID":"2025-254L","EPOCH":"2026-03-04T12:30:45.770112","MEAN_MOTION":15.30220523,"ECCENTRICITY":0.00016408,"INCLINATION":53.158,"RA_OF_ASC_NODE":256.5096,"ARG_OF_PERICENTER":118.7838,"MEAN_ANOMALY":241.3328,"EPHEMERIS_TYPE":0,"CLASSIFICATION_TYPE":"U","NORAD_CAT_ID":66358,"ELEMENT_SET_NO":999,"REV_AT_EPOCH":1818,"BSTAR":0.0012766431,"MEAN_MOTION_DOT":0.00037667,"MEAN_MOTION_DDOT":0},{"OBJECT_NAME":"STARLINK-35805","OBJECT_ID":"2025-254M","EPOCH":"2026-03-04T13:35:56.482944","MEAN_MOTION":15.30220362,"ECCENTRICITY":0.0001368,"INCLINATION":53.1557,"RA_OF_ASC_NODE":256.0812,"ARG_OF_PERICENTER":109.6352,"MEAN_ANOMALY":250.4796,"EPHEMERIS_TYPE":0,"CLASSIFICATION_TYPE":"U","NORAD_CAT_ID":66359,"ELEMENT_SET_NO":999,"REV_AT_EPOCH":1932,"BSTAR":0.001035,"MEAN_MOTION_DOT":0.00030441,"MEAN_MOTION_DDOT":0},{"OBJECT_NAME":"STARLINK-35823","OBJECT_ID":"2025-254N","EPOCH":"2026-03-04T13:17:42.221760","MEAN_MOTION":15.30227252,"ECCENTRICITY":0.0001255,"INCLINATION":53.1563,"RA_OF_ASC_NODE":256.0007,"ARG_OF_PERICENTER":114.263,"MEAN_ANOMALY":245.8502,"EPHEMERIS_TYPE":0,"CLASSIFICATION_TYPE":"U","NORAD_CAT_ID":66360,"ELEMENT_SET_NO":999,"REV_AT_EPOCH":1819,"BSTAR":0.0011501,"MEAN_MOTION_DOT":0.00033887,"MEAN_MOTION_DDOT":0}]
